ONEWEB-0331             
1 49198U 21083N   24216.41168220  .00000098  00000+0  21474-3 0  9991
2 49198  87.9133 111.3840 0002134  85.0906 275.0469 13.18685080140020
ONEWEB-0333             
1 49199U 21083P   24216.58923615 -.00001429  00000+0 -39477-2 0  9999
2 49199  87.8904  96.1185 0001702  77.4614 282.6705 13.13476736141309
ONEWEB-0334             
1 49200U 21083Q   24216.54149617  .00000039  00000+0  63074-4 0  9996
2 49200  87.9173  50.2765 0001550  51.6204 308.5068 13.20769606146681
ONEWEB-0335             
1 49201U 21083R   24216.58447786  .00000326  00000+0  85704-3 0  9991
2 49201  87.8903  96.1080 0001764  83.3835 276.7495 13.13470684141312
ONEWEB-0336             
1 49202U 21083S   24216.70667402 -.00000090  00000+0 -28070-3 0  9998
2 49202  87.8901  96.0793 0001923  74.3794 285.7547 13.13461920142628
ONEWEB-0337             
1 49203U 21083T   24216.71606453  .00000073  00000+0  16481-3 0  9991
2 49203  87.8902  96.0759 0001824  81.8578 278.2757 13.13471733142628
ONEWEB-0338             
1 49204U 21083U   24216.54860115  .00000095  00000+0  20160-3 0  9993
2 49204  87.9181  50.2617 0001423  81.8996 278.2298 13.20771695146704
ONEWEB-0339             
1 49205U 21083V   24216.72731290  .00000376  00000+0  99473-3 0  9990
2 49205  87.8900  96.0682 0001753  82.3949 277.7379 13.13469440142606
